NORAD_CAT_ID,OBJECT_NAME,OBJECT_TYPE,EPOCH,MEAN_MOTION,ECCENTRICITY,INCLINATION,RA_OF_ASC_NODE,ARG_OF_PERICENTER,MEAN_ANOMALY,BSTAR,MEAN_MOTION_DOT,MEAN_MOTION_DDOT,TLE_LINE0,TLE_LINE1,TLE_LINE2,SEMIMAJOR_AXIS,PERIOD,APOGEE,PERIGEE,DECAYED
50197.0,STARLINK-3267,PAYLOAD,2022-07-21 08:58:37,15.08836947,0.000117,53.2175,77.6716,82.9764,277.1361,6.6670000000000016e-06,-1.82e-06,0.0,0 STARLINK-3267,1 50197U 21125AT  22202.37404150 -.00000182  00000-0  66670-5 0  9997,2 50197  53.2175  77.6716 0001170  82.9764 277.1361 15.08836947 36407,6917.89,95.438,540.564,538.945,0.0
50197.0,STARLINK-3267,PAYLOAD,2022-07-21 21:41:42,15.0883312,0.0001773,53.219,75.2908,61.7414,298.3757,-4.4373e-05,-9.94e-06,0.0,0 STARLINK-3267,1 50197U 21125AT  22202.90396773 -.00000994  00000-0 -44373-4 0  9994,2 50197  53.2190  75.2908 0001773  61.7414 298.3757 15.08833120 36489,6917.901,95.438,540.993,538.54,0.0
50197.0,STARLINK-3267,PAYLOAD,2022-07-22 00:52:29,15.0883447,0.000144,53.2189,74.6959,67.7526,292.3619,-8.7291e-05,-1.677e-05,0.0,0 STARLINK-3267,1 50197U 21125AT  22203.03644784 -.00001677  00000-0 -87291-4 0  9992,2 50197  53.2189  74.6959 0001440  67.7526 292.3619 15.08834470 36500,6917.897,95.438,540.758,538.766,0.0
50197.0,STARLINK-3267,PAYLOAD,2022-07-22 21:32:29,15.08843867,0.00015,53.219,70.8303,59.4999,300.6141,9.4378e-05,1.215e-05,0.0,0 STARLINK-3267,1 50197U 21125AT  22203.89755796  .00001215  00000-0  94378-4 0  9992,2 50197  53.2190  70.8303 0001500  59.4999 300.6141 15.08843867 36639,6917.869000000002,95.437,540.771,538.696,0.0
50197.0,STARLINK-3267,PAYLOAD,2022-07-23 00:43:15,15.08840802,0.0001730999999999,53.219,70.2359,75.7776,284.3408,0.00018505,2.658e-05,0.0,0 STARLINK-3267,1 50197U 21125AT  22204.03003743  .00002658  00000-0  18505-3 0  9996,2 50197  53.2190  70.2359 0001731  75.7776 284.3408 15.08840802 36128,6917.878000000002,95.438,540.94,538.545,0.0
50197.0,STARLINK-3267,PAYLOAD,2022-07-23 08:40:10,15.08845662,0.0001612,53.2192,68.7491,63.5147,296.601,0.0001553,2.185e-05,0.0,0 STARLINK-3267,1 50197U 21125AT  22204.36123415  .00002185  00000-0  15530-3 0  9991,2 50197  53.2192  68.7491 0001612  63.5147 296.6010 15.08845662 36702,6917.863,95.437,540.8430000000002,538.613,0.0
50197.0,STARLINK-3267,PAYLOAD,2022-07-23 21:23:17,15.08828475,0.0001505,53.2198,66.3701,73.0165,287.0992,3.9831e-05,3.46e-06,0.0,0 STARLINK-3267,1 50197U 21125AT  22204.89116959  .00000346  00000-0  39831-4 0  9992,2 50197  53.2198  66.3701 0001505  73.0165 287.0992 15.08828475 36787,6917.916,95.438,540.822,538.739,0.0
50197.0,STARLINK-3267,PAYLOAD,2022-07-24 00:34:03,15.08825199,0.0001638,53.2194,65.7764,64.4907,295.6255,3.3725e-05,2.49e-06,0.0,0 STARLINK-3267,1 50197U 21125AT  22205.02365289  .00000249  00000-0  33725-4 0  9998,2 50197  53.2194  65.7764 0001638  64.4907 295.6255 15.08825199 36800,6917.926,95.438,540.924,538.6569999999998,0.0
50197.0,STARLINK-3267,PAYLOAD,2022-07-24 21:14:03,15.08839774,0.0001662,53.2189,61.9112,60.0919,300.0239,1.0069e-06,-2.72e-06,0.0,0 STARLINK-3267,1 50197U 21125AT  22205.88476723 -.00000272  00000-0  10069-5 0  9992,2 50197  53.2189  61.9112 0001662  60.0919 300.0239 15.08839774 36932,6917.880999999999,95.438,540.896,538.596,0.0
50197.0,STARLINK-3267,PAYLOAD,2022-07-25 00:24:49,15.08844802,0.0001617,53.2187,61.3163,59.0879,301.0272,-8.5662e-06,-4.24e-06,0.0,0 STARLINK-3267,1 50197U 21125AT  22206.01724437 -.00000424  00000-0 -85662-5 0  9997,2 50197  53.2187  61.3163 0001617  59.0879 301.0272 15.08844802 36951,6917.866,95.437,540.849,538.612,0.0
50197.0,STARLINK-3267,PAYLOAD,2022-07-25 16:18:42,15.08825032,0.0001384,53.2199,58.3409,88.0367,272.0783,-2.3822e-06,-3.26e-06,0.0,0 STARLINK-3267,1 50197U 21125AT  22206.67965822 -.00000326  00000-0 -23822-5 0  9995,2 50197  53.2199  58.3409 0001384  88.0367 272.0783 15.08825032 36529,6917.926,95.439,540.749,538.8340000000002,0.0
50197.0,STARLINK-3267,PAYLOAD,2022-07-26 06:37:10,15.08829891,0.0001647,53.2189,55.6671,61.6724,298.4434,7.3594e-05,8.83e-06,0.0,0 STARLINK-3267,1 50197U 21125AT  22207.27581862  .00000883  00000-0  73594-4 0  9996,2 50197  53.2189  55.6671 0001647  61.6724 298.4434 15.08829891 37146,6917.911,95.438,540.9159999999998,538.637,0.0
50197.0,STARLINK-3267,PAYLOAD,2022-07-26 17:44:52,15.08837531,0.0001601,53.2188,53.5851,63.8993,296.2163,3.7575e-05,3.1e-06,0.0,0 STARLINK-3267,1 50197U 21125AT  22207.73949690  .00000310  00000-0  37575-4 0  9998,2 50197  53.2188  53.5851 0001601  63.8993 296.2163 15.08837531 36687,6917.888000000001,95.438,540.86,538.645,0.0
50197.0,STARLINK-3267,PAYLOAD,2022-07-26 19:20:15,15.08838185,0.0001571,53.2189,53.2877,70.2248,289.8913,5.8265e-05,6.39e-06,0.0,0 STARLINK-3267,1 50197U 21125AT  22207.80573577  .00000639  00000-0  58265-4 0  9996,2 50197  53.2189  53.2877 0001571  70.2248 289.8913 15.08838185 37222,6917.886,95.438,540.8380000000002,538.664,0.0
50197.0,STARLINK-3267,PAYLOAD,2022-07-27 00:06:24,15.08840631,0.0001629,53.2188,52.3959,63.2807,296.8352,6.1566e-05,6.92e-06,0.0,0 STARLINK-3267,1 50197U 21125AT  22208.00445484  .00000692  00000-0  61566-4 0  9991,2 50197  53.2188  52.3959 0001629  63.2807 296.8352 15.08840631 37256,6917.878000000002,95.438,540.87,538.617,0.0
50197.0,STARLINK-3267,PAYLOAD,2022-07-27 19:11:02,15.08874502,0.0002182,53.2193,48.8328,58.6707,301.4499,-0.00060106,-9.851e-05,0.0,0 STARLINK-3267,1 50197U 21125AT  22208.79933682 -.00009851  00000-0 -60106-3 0  9995,2 50197  53.2193  48.8328 0002182  58.6707 301.4499 15.08874502 36847,6917.775,95.435,541.149,538.13,0.0
50197.0,STARLINK-3267,PAYLOAD,2022-07-28 01:32:35,15.08833848,0.0001592,53.2189,47.6382,66.7473,293.3686,5.3994e-05,5.71e-06,0.0,0 STARLINK-3267,1 50197U 21125AT  22209.06430083  .00000571  00000-0  53994-4 0  9999,2 50197  53.2189  47.6382 0001592  66.7473 293.3686 15.08833848 36882,6917.899,95.438,540.866,538.663,0.0
50197.0,STARLINK-3267,PAYLOAD,2022-07-28 17:26:26,15.08840072,0.0001709,53.2191,44.6649,65.5547,294.5623,5.2636e-05,5.5e-06,0.0,0 STARLINK-3267,1 50197U 21125AT  22209.72669829  .00000550  00000-0  52636-4 0  9993,2 50197  53.2191  44.6649 0001709  65.5547 294.5623 15.08840072 37519,6917.88,95.438,540.927,538.563,0.0
50197.0,STARLINK-3267,PAYLOAD,2022-07-28 22:12:35,15.08843348,0.0001696999999999,53.2192,43.7728,65.9636,294.1534,5.395e-05,5.71e-06,0.0,0 STARLINK-3267,1 50197U 21125AT  22209.92541618  .00000571  00000-0  53950-4 0  9993,2 50197  53.2192  43.7728 0001697  65.9636 294.1534 15.08843348 37018,6917.87,95.437,540.909,538.561,0.0
50197.0,STARLINK-3267,PAYLOAD,2022-07-29 12:31:03,15.08847988,0.0001669,53.2194,41.0963,67.2905,292.8264,5.6122e-05,6.05e-06,0.0,0 STARLINK-3267,1 50197U 21125AT  22210.52157119  .00000605  00000-0  56122-4 0  9992,2 50197  53.2194  41.0963 0001669  67.2905 292.8264 15.08847988 37632,6917.856,95.437,540.876,538.566,0.0
50197.0,STARLINK-3267,PAYLOAD,2022-07-29 18:52:38,15.08740584,0.0002400999999999,53.2193,39.9071,70.1746,289.9505,0.0016577,0.00026121,0.0,0 STARLINK-3267,1 50197U 21125AT  22210.78655516  .00026121  00000-0  16577-2 0  9993,2 50197  53.2193  39.9071 0002401  70.1746 289.9505 15.08740584 37671,6918.184,95.444,541.71,538.388,0.0
50197.0,STARLINK-3267,PAYLOAD,2022-07-30 01:14:08,15.08846953,0.0001768,53.2192,38.7175,69.6148,290.5034,0.00012229,1.659e-05,0.0,0 STARLINK-3267,1 50197U 21125AT  22211.05148851  .00001659  00000-0  12229-3 0  9993,2 50197  53.2192  38.7175 0001768  69.6148 290.5034 15.08846953 37184,6917.859,95.437,540.947,538.501,0.0
50197.0,STARLINK-3267,PAYLOAD,2022-07-30 12:21:51,15.088367800000002,0.0001774999999999,53.2191,36.6359,68.2596,291.8585,5.2845e-05,5.53e-06,0.0,0 STARLINK-3267,1 50197U 21125AT  22211.51517708  .00000553  00000-0  52845-4 0  9996,2 50197  53.2191  36.6359 0001775  68.2596 291.8585 15.08836780 37782,6917.89,95.438,540.9830000000002,538.5269999999998,0.0
50197.0,STARLINK-3267,PAYLOAD,2022-07-30 18:43:23,15.0884038,0.0001769,53.2192,35.447,68.1704,291.9477,3.2819e-05,2.34e-06,0.0,0 STARLINK-3267,1 50197U 21125AT  22211.78013506  .00000234  00000-0  32819-4 0  9997,2 50197  53.2192  35.4470 0001769  68.1704 291.9477 15.08840380 37824,6917.879,95.438,540.9680000000002,538.52,0.0
50197.0,STARLINK-3267,PAYLOAD,2022-07-31 12:12:37,15.08844405,0.0001758,53.2192,32.1759,68.3592,291.7587,3.6056e-05,2.86e-06,0.0,0 STARLINK-3267,1 50197U 21125AT  22212.50877085  .00000286  00000-0  36056-4 0  9992,2 50197  53.2192  32.1759 0001758  68.3592 291.7587 15.08844405 37409,6917.8669999999975,95.437,540.948,538.516,0.0
50197.0,STARLINK-3267,PAYLOAD,2022-07-31 18:34:10,15.08846546,0.0001771,53.2192,30.9867,68.5941,291.524,3.4876e-05,2.67e-06,0.0,0 STARLINK-3267,1 50197U 21125AT  22212.77372848  .00000267  00000-0  34876-4 0  9995,2 50197  53.2192  30.9867 0001771  68.5941 291.5240 15.08846546 37974,6917.86,95.437,540.951,538.5,0.0
50197.0,STARLINK-3267,PAYLOAD,2022-08-01 13:38:47,15.08839139,0.0001735,53.219,27.4182,68.1087,292.009,8.9165e-05,1.131e-05,0.0,0 STARLINK-3267,1 50197U 21125AT  22213.56861023  .00001131  00000-0  89165-4 0  9993,2 50197  53.2190  27.4182 0001735  68.1087 292.0090 15.08839139 38093,6917.8830000000025,95.438,540.948,538.548,0.0
50197.0,STARLINK-3267,PAYLOAD,2022-08-01 18:24:57,15.08835092,0.0001743,53.2193,26.5262,68.9213,291.1965,3.6337e-05,2.9e-06,0.0,0 STARLINK-3267,1 50197U 21125AT  22213.76733452  .00000290  00000-0  36337-4 0  9997,2 50197  53.2193  26.5262 0001743  68.9213 291.1965 15.08835092 37592,6917.895,95.438,540.966,538.555,0.0
50197.0,STARLINK-3267,PAYLOAD,2022-08-02 11:54:12,15.08839064,0.0001693,53.2195,23.2554,67.3901,292.7270000000001,2.9342e-05,1.79e-06,0.0,0 STARLINK-3267,1 50197U 21125AT  22214.49597369  .00000179  00000-0  29342-4 0  9997,2 50197  53.2195  23.2554 0001693  67.3901 292.7270 15.08839064 38234,6917.8830000000025,95.438,540.919,538.577,0.0
